[{"id":"44299","name":"COSMOS 2534 [GLONASS-M]","tle1":"1 44299U 19030A   26175.51251176  .00000105  00000+0  00000+0 0  9994","tle2":"2 44299  64.3690 192.3697 0013462 274.9296  83.9383  2.13102365 55074"},{"id":"44337","name":"BEIDOU-3 IGSO-2","tle1":"1 44337U 19035A   26174.86225344 -.00000062  00000+0  00000+0 0  9990","tle2":"2 44337  55.2489 158.8038 0039423 216.4706 326.6444  1.00264372 25737"},{"id":"44506","name":"NAVSTAR 78 (USA 293)","tle1":"1 44506U 19056A   26175.86491944 -.00000105  00000+0  00000+0 0  9991","tle2":"2 44506  55.6332 330.8369 0062366 197.6681 333.6103  2.00570127 50220"},{"id":"44542","name":"BEIDOU-3 M24","tle1":"1 44542U 19061A   26173.61199497  .00000094  00000+0  00000+0 0  9992","tle2":"2 44542  54.3965 182.5445 0008447 358.6197   1.4065  1.86229121 45898"},{"id":"44543","name":"BEIDOU-3 M23","tle1":"1 44543U 19061B   26174.55218917  .00000102  00000+0  00000+0 0  9996","tle2":"2 44543  54.3954 182.4810 0005823 338.7823 203.1503  1.86227312 45913"},{"id":"44624","name":"EUTELSAT 5 WEST B","tle1":"1 44624U 19067A   26176.23516927 -.00000033  00000+0  00000+0 0  9995","tle2":"2 44624   0.0621   2.3428 0003363  91.4060 259.2854  1.00271360 24512"},{"id":"44793","name":"BEIDOU-3 M22","tle1":"1 44793U 19078A   26173.98886353 -.00000107  00000+0  00000+0 0  9998","tle2":"2 44793  53.9301 299.6233 0006249  51.2109 308.8401  1.86227077 44757"},{"id":"44794","name":"BEIDOU-3 M21","tle1":"1 44794U 19078B   26171.44396153 -.00000092  00000+0  00000+0 0  9995","tle2":"2 44794  53.9054 299.6746 0003921  48.8810 311.1504  1.86227692 44717"},{"id":"44850","name":"COSMOS 2544 [GLONASS-M]","tle1":"1 44850U 19088A   26175.06827285 -.00000068  00000+0  00000+0 0  9999","tle2":"2 44850  65.5696  73.5010 0012943 257.9602 101.9270  2.13102868 50866"},{"id":"44864","name":"BEIDOU-3 M19","tle1":"1 44864U 19090A   26175.25055926 -.00000095  00000+0  00000+0 0  9993","tle2":"2 44864  56.5650  62.5564 0017586 297.6479 291.8664  1.86231520 44365"},{"id":"44865","name":"BEIDOU-3 M20","tle1":"1 44865U 19090B   26175.11236480 -.00000095  00000+0  00000+0 0  9995","tle2":"2 44865  56.5667  62.5955 0015370 311.9218 274.5279  1.86231501 44345"},{"id":"45344","name":"BEIDOU-3 G2","tle1":"1 45344U 20017A   26176.32682965 -.00000134  00000+0  00000+0 0  9990","tle2":"2 45344   2.8810  47.4868 0002469  36.7128  27.0150  1.00272014 23340"},{"id":"45358","name":"COSMOS 2545 [GLONASS-M]","tle1":"1 45358U 20018A   26173.38622942 -.00000076  00000+0  00000+0 0  9993","tle2":"2 45358  64.3518 312.2361 0008551 229.7005 130.2180  2.13102345 48778"},{"id":"45807","name":"BEIDOU-3 G3","tle1":"1 45807U 20040A   26176.33301515 -.00000346  00000+0  00000+0 0  9995","tle2":"2 45807   2.4677  67.4740 0002659 326.5246 109.8765  1.00275241 22158"},{"id":"45854","name":"NAVSTAR 79 (USA 304)","tle1":"1 45854U 20041A   26175.71392622 -.00000091  00000+0  00000+0 0  9995","tle2":"2 45854  56.6750  28.6507 0064456 204.5351 155.8006  2.00558689 44196"},{"id":"46114","name":"GALAXY 30 (G-30)","tle1":"1 46114U 20056C   26175.71600622  .00000046  00000+0  00000+0 0  9992","tle2":"2 46114   0.0130  51.5985 0002220  38.3382 315.6757  1.00270732 21366"},{"id":"46805","name":"COSMOS 2547 [GLONASS-K]","tle1":"1 46805U 20075A   26174.04506766  .00000094  00000+0  00000+0 0  9992","tle2":"2 46805  64.5998 192.2800 0009389 239.8936 120.0622  2.13100075 44030"},{"id":"46826","name":"NAVSTAR 80 (USA 309)","tle1":"1 46826U 20078A   26175.74760256  .00000075  00000+0  00000+0 0  9991","tle2":"2 46826  53.9789 210.4716 0073772 207.4288 153.8202  2.00565079 41669"},{"id":"48859","name":"NAVSTAR 81 (USA 319)","tle1":"1 48859U 21054A   26175.73664020 -.00000105  00000+0  00000+0 0  9990","tle2":"2 48859  55.1704 332.1556 0025640 228.3244 311.3011  2.00568778 36906"},{"id":"49336","name":"QZS-1R (MICHIBIKI-1R)","tle1":"1 49336U 21096A   26175.68640723 -.00000314  00000+0  00000+0 0  9997","tle2":"2 49336  37.4769  79.4708 0755414 271.9402 302.0045  1.00253611 17088"},{"id":"49809","name":"GSAT0223 (GALILEO 27)","tle1":"1 49809U 21116A   26174.44047914 -.00000098  00000+0  00000+0 0  9990","tle2":"2 49809  57.1590 341.5051 0001600 183.5383 174.0725  1.70476308 28288"},{"id":"49810","name":"GSAT0224 (GALILEO 28)","tle1":"1 49810U 21116B   26175.43902916 -.00000098  00000+0  00000+0 0  9994","tle2":"2 49810  57.1587 341.4772 0001337 159.4629 203.6086  1.70476440 28339"},{"id":"52984","name":"COSMOS 2557 [GLONASS-K]","tle1":"1 52984U 22075A   26173.27080705 -.00000076  00000+0  00000+0 0  9994","tle2":"2 52984  64.2952 314.3058 0010303 273.7574  86.1177  2.13102021 30829"},{"id":"54031","name":"COSMOS 2559 [GLONASS-K]","tle1":"1 54031U 22130A   26174.96748302 -.00000084  00000+0  00000+0 0  9991","tle2":"2 54031  64.2669 314.3295 0012699 178.7771 181.2176  2.13101763 28831"},{"id":"54377","name":"COSMOS 2564 [GLONASS-M]","tle1":"1 54377U 22161A   26175.27999315  .00000104  00000+0  00000+0 0  9997","tle2":"2 54377  64.7424 192.4762 0012246 224.9947 134.9582  2.13102100 27784"},{"id":"55268","name":"NAVSTAR 82 (USA 343)","tle1":"1 55268U 23009A   26175.93576141  .00000055  00000+0  00000+0 0  9995","tle2":"2 55268  55.1239 148.2141 0006333 317.2838  44.5224  2.00571146 25409"},{"id":"56564","name":"BEIDOU-3 G4","tle1":"1 56564U 23066A   26176.26754473 -.00000271  00000+0  00000+0 0  9992","tle2":"2 56564   0.4777 333.5966 0004728 175.7491   0.4370  1.00271682 11477"},{"id":"56759","name":"NVS-01 (IRNSS-1J)","tle1":"1 56759U 23076A   26176.26546472 -.00000323  00000+0  00000+0 0  9995","tle2":"2 56759   2.1468 243.9686 0002838  14.0924 240.4344  1.00275599 11195"},{"id":"57517","name":"COSMOS 2569 [GLONASS-K2]","tle1":"1 57517U 23114A   26172.94601313 -.00000057  00000+0  00000+0 0  9992","tle2":"2 57517  65.3047  72.4599 0010483 296.8456  63.0820  2.13103733 22369"},{"id":"58654","name":"BEIDOU-3 M28","tle1":"1 58654U 23207A   26175.81668910 -.00000096  00000+0  00000+0 0  9996","tle2":"2 58654  55.7594  62.0455 0003030 351.9089   8.1238  1.86229863 16989"},{"id":"58655","name":"BEIDOU-3 M26","tle1":"1 58655U 23207B   26175.61418579 -.00000096  00000+0  00000+0 0  9999","tle2":"2 58655  55.7615  62.0389 0002778 321.7862  38.2312  1.86229838 16969"}]